GLOBALSTAR M084         
1 38040U 11080A   25353.30710549 -.00000078  00000+0  14300-3 0  9998
2 38040  51.9983 204.9031 0001350  79.4554  91.8850 12.62266727646046
GLOBALSTAR M080         
1 38041U 11080B   25353.03671237 -.00000066  00000+0  20936-3 0  9998
2 38041  52.0033 207.3821 0000719 100.4737  51.4945 12.62265021646138
GLOBALSTAR M082         
1 38042U 11080C   25352.89691368 -.00000098  00000+0  30442-4 0  9998
2 38042  52.0050 163.2884 0000834 108.8430  57.2075 12.62266389646829
GLOBALSTAR M092         
1 38043U 11080D   25353.18698867 -.00000076  00000+0  15592-3 0  9997
2 38043  52.0079 252.7939 0000859  66.4657  97.9974 12.62268464645311
GLOBALSTAR M090         
1 38044U 11080E   25352.67063344 -.00000110  00000+0 -34277-4 0  9999
2 38044  52.0096 157.8751 0000940  91.2297   4.9669 12.62265499646916
GLOBALSTAR M086         
1 38045U 11080F   25353.18636036 -.00000097  00000+0  37019-4 0  9991
2 38045  51.9875 156.5284 0001461  48.2551 122.6592 12.62281367646927
GLOBALSTAR M097         
1 39072U 13005A   25353.17695861 -.00000115  00000+0 -61946-4 0  9999
2 39072  52.0060  71.3017 0000491 111.5674 248.5245 12.62267687594177
GLOBALSTAR M093         
1 39073U 13005B   25353.15085737 -.00000103  00000+0  41657-5 0  9997
2 39073  52.0116  64.6606 0000222 106.4207 253.6685 12.62271105594126
